[Satellite]
VERSION=1.1
NAME=GOES 13
NICKNAME=GOES 13
TLE1=1 29155U 06018A   15053.29244097 -.00000273  00000-0  00000+0 0  9990
TLE2=2 29155   0.4153 270.1638 0003193 128.8280 142.6252  1.00275828 32076
